[{"OBJECT_NAME":"STARLINK-6230","OBJECT_ID":"2023-094L","EPOCH":"2026-03-09T22:00:01.999584","MEAN_MOTION":15.16843602,"ECCENTRICITY":0.00012019,"INCLINATION":43.0002,"RA_OF_ASC_NODE":28.5737,"ARG_OF_PERICENTER":233.9151,"MEAN_ANOMALY":2.3003,"EPHEMERIS_TYPE":0,"CLASSIFICATION_TYPE":"U","NORAD_CAT_ID":57228,"ELEMENT_SET_NO":999,"REV_AT_EPOCH":573,"BSTAR":0.055580551,"MEAN_MOTION_DOT":0.01216881,"MEAN_MOTION_DDOT":0},{"OBJECT_NAME":"LEMUR-2-DEVERILL-M-T","OBJECT_ID":"2023-100F","EPOCH":"2026-03-09T12:28:46.594272","MEAN_MOTION":15.34744564,"ECCENTRICITY":0.00079755,"INCLINATION":99.4583,"RA_OF_ASC_NODE":78.9092,"ARG_OF_PERICENTER":29.3685,"MEAN_ANOMALY":330.7998,"EPHEMERIS_TYPE":0,"CLASSIFICATION_TYPE":"U","NORAD_CAT_ID":57391,"ELEMENT_SET_NO":999,"REV_AT_EPOCH":14593,"BSTAR":0.0008498245,"MEAN_MOTION_DOT":0.0002862,"MEAN_MOTION_DDOT":0}]
